{"epoch":1784799577,"count":18318,"objects":[{"id":"27691","name":"USA 167","type":"PAYLOAD","l1":"1 27691U 03008A   26203.59022367  .00000000  00000-0  00000-0 0  9993","l2":"2 27691  11.0297  43.0857 0003261 314.7663  33.1489  1.00270516  7126"},{"id":"27711","name":"USA 169","type":"PAYLOAD","l1":"1 27711U 03012A   26203.85827728 -.00000201  00000-0  00000-0 0  9998","l2":"2 27711  12.4024  29.5457 0099405  10.6323   1.5691  1.00273005 33317"},{"id":"27718","name":"ASIASAT 4","type":"PAYLOAD","l1":"1 27718U 03014A   26203.92865701 -.00000223  00000-0  00000-0 0  9992","l2":"2 27718   4.7920  75.2919 0002772  49.0619 298.1719  1.00270751 45659"},{"id":"27811","name":"HELLAS-SAT 2","type":"PAYLOAD","l1":"1 27811U 03020A   26203.82618603 -.00000087  00000-0  00000-0 0  9997","l2":"2 27811   7.4405  67.4527 0004162  86.2729  74.2355  1.00272571 43209"},{"id":"27825","name":"THURAYA 2","type":"PAYLOAD","l1":"1 27825U 03026A   26203.69429115  .00000122  00000-0  00000-0 0  9990","l2":"2 27825   8.8929  31.8059 0002275  27.9418 174.6431  1.00271151 84708"},{"id":"27831","name":"OPTUS C1","type":"PAYLOAD","l1":"1 27831U 03028B   26203.85905729 -.00000153  00000-0  00000-0 0  9992","l2":"2 27831   6.9762  68.9725 0005756  48.5801 287.9873  1.00274523 53410"},{"id":"27875","name":"USA 170","type":"PAYLOAD","l1":"1 27875U 03040A   26203.94868270  .00000122  00000-0  00000-0 0  9998","l2":"2 27875  10.5738  47.6031 0001670  59.8058 199.1235  1.00266610 33351"},{"id":"27954","name":"HORIZONS 1 (GALAXY 13)","type":"PAYLOAD","l1":"1 27954U 03044A   26203.72717649  .00000135  00000-0  00000-0 0  9993","l2":"2 27954   1.5078  83.3980 0002075  44.1505 284.7210  1.00274659 46923"},{"id":"28089","name":"YAMAL 202","type":"PAYLOAD","l1":"1 28089U 03053A   26203.86053062 -.00000082  00000-0  00000-0 0  9992","l2":"2 28089   6.4302  70.5020 0003204  50.2829 293.1284  1.00271610 83056"},{"id":"28117","name":"UFO 11 (USA 174)","type":"PAYLOAD","l1":"1 28117U 03057A   26203.03184699 -.00000107  00000-0  00000-0 0  9996","l2":"2 28117   8.9587  33.6327 0002798 106.2489 246.9067  1.00270705 82790"},{"id":"28158","name":"USA 176","type":"PAYLOAD","l1":"1 28158U 04004A   26203.88958758 -.00000301  00000-0  00000-0 0  9998","l2":"2 28158  12.1100  25.8012 0000929 312.3565 233.0710  1.00263887 33292"},{"id":"28184","name":"ABS 4 (MBSAT)","type":"PAYLOAD","l1":"1 28184U 04007A   26203.76895191  .00000037  00000-0  00000-0 0  9993","l2":"2 28184   6.1280  71.5676 0004533  54.8388 151.9468  1.00275295 52692"},{"id":"28358","name":"INTELSAT 1002","type":"PAYLOAD","l1":"1 28358U 04022A   26203.82800603 -.00000007  00000-0  00000-0 0  9992","l2":"2 28358   0.0590 255.7029 0000186 262.5018  79.4450  1.00272692 80917"},{"id":"28378","name":"ANIK F2","type":"PAYLOAD","l1":"1 28378U 04027A   26203.66343769 -.00000049  00000-0  00000-0 0  9992","l2":"2 28378   3.3768  78.9736 0003799  36.2069 312.9357  1.00272593 41612"},{"id":"28446","name":"AMC-15","type":"PAYLOAD","l1":"1 28446U 04041A   26203.59351703 -.00000085  00000-0  00000-0 0  9993","l2":"2 28446   0.0518 277.8507 0002530 203.4067 287.6920  1.00272822 79653"},{"id":"28526","name":"NSS 10 (AMC-12)","type":"PAYLOAD","l1":"1 28526U 05003A   26203.91897911 -.00000253  00000-0  00000-0 0  9990","l2":"2 28526   6.5367  70.0155 0002930  49.2447 114.7722  1.00271470 53514"},{"id":"28628","name":"INMARSAT 4-F1","type":"PAYLOAD","l1":"1 28628U 05009A   26203.77683400  .00000033  00000-0  00000-0 0  9994","l2":"2 28628   5.2168  42.7944 0002862  76.4892 278.9976  1.00273314 78020"},{"id":"28659","name":"DIRECTV 8","type":"PAYLOAD","l1":"1 28659U 05019A   26203.73332986  .00000005  00000-0  00000-0 0  9994","l2":"2 28659   0.0140  77.4981 0003237  49.2249 318.7033  1.00273389 77426"},{"id":"28702","name":"GALAXY 28 (IA 8)","type":"PAYLOAD","l1":"1 28702U 05022A   26203.89409426 -.00000199  00000-0  00000-0 0  9993","l2":"2 28702   3.3872  78.4884 0002312  41.8532 115.0687  1.00271717 52331"},{"id":"28786","name":"IPSTAR 1","type":"PAYLOAD","l1":"1 28786U 05028A   26203.92311032 -.00000358  00000-0  00000-0 0  9997","l2":"2 28786   0.3350  85.4931 0001760   8.6173 298.3791  1.00273225 52607"},{"id":"28868","name":"ANIK F1-R","type":"PAYLOAD","l1":"1 28868U 05036A   26203.66439102 -.00000075  00000-0  00000-0 0  9993","l2":"2 28868   4.4009  76.1377 0003993  24.5922 331.5507  1.00272571 46807"},{"id":"28885","name":"SYRACUSE 3A","type":"PAYLOAD","l1":"1 28885U 05041B   26203.90832931  .00000129  00000-0  00000-0 0  9991","l2":"2 28885   4.7296  75.3943 0002574  40.6116 198.2623  1.00271833 76108"},{"id":"28899","name":"INMARSAT 4-F2","type":"PAYLOAD","l1":"1 28899U 05044A   26203.92787701 -.00000260  00000-0  00000-0 0  9992","l2":"2 28899   5.1415  43.6878 0003000  62.0566 312.4526  1.00271809 75887"},{"id":"28912","name":"METEOSAT 9 (MSG 2)","type":"PAYLOAD","l1":"1 28912U 05049B   26203.69463781  .00000120  00000-0  00000-0 0  9990","l2":"2 28912   9.4395  53.8119 0002497   0.9347 181.4776  1.00276413  7359"},{"id":"28924","name":"EUTE 172A (GE 23)","type":"PAYLOAD","l1":"1 28924U 05052A   26203.86261064  .00000009  00000-0  00000-0 0  9992","l2":"2 28924   4.3065  76.0843 0006131  44.9570 304.0636  1.00273776 52689"},{"id":"28935","name":"ECHOSTAR 10","type":"PAYLOAD","l1":"1 28935U 06003A   26203.59247701 -.00000052  00000-0  00000-0 0  9992","l2":"2 28935   0.0563 280.4831 0001611 171.9789 310.9728  1.00271630 74810"},{"id":"28945","name":"SPAINSAT","type":"PAYLOAD","l1":"1 28945U 06007A   26203.25064879 -.00000214  00000-0  00000-0 0  9993","l2":"2 28945   0.6514  85.9731 0004977  30.9817 243.0836  1.00272680 74579"},{"id":"29045","name":"JCSAT 9","type":"PAYLOAD","l1":"1 29045U 06010A   26203.92562367 -.00000325  00000-0  00000-0 0  9991","l2":"2 29045   1.1990  83.8109 0001970  30.5252 291.5957  1.00270995 74120"},{"id":"29055","name":"ASTRA 1KR","type":"PAYLOAD","l1":"1 29055U 06012A   26203.88747132  .00000122  00000-0  00000-0 0  9998","l2":"2 29055   0.5634  83.1816 0003361  25.9763 169.9570  1.00270098 46052"},{"id":"29236","name":"GALAXY 16","type":"PAYLOAD","l1":"1 29236U 06023A   26203.66603770 -.00000123  00000-0  00000-0 0  9998","l2":"2 29236   0.0263 129.7111 0002819 352.0085 319.4532  1.00272771 73329"},{"id":"29270","name":"EUTE HOT BIRD 13B (HB 8)","type":"PAYLOAD","l1":"1 29270U 06032A   26203.89300972  .00000158  00000-0  00000-0 0  9996","l2":"2 29270   1.7513  81.8430 0003534  28.5349 184.8184  1.00269586 47663"},{"id":"29272","name":"JCSAT 10","type":"PAYLOAD","l1":"1 29272U 06033A   26203.92475699 -.00000341  00000-0  00000-0 0  9997","l2":"2 29272   0.0220 306.6599 0002431 179.1513 275.7595  1.00270255 48096"}]}