OBJECT_NAME,OBJECT_ID,EPOCH,MEAN_MOTION,ECCENTRICITY,INCLINATION,RA_OF_ASC_NODE,ARG_OF_PERICENTER,MEAN_ANOMALY,EPHEMERIS_TYPE,CLASSIFICATION_TYPE,NORAD_CAT_ID,ELEMENT_SET_NO,REV_AT_EPOCH,BSTAR,MEAN_MOTION_DOT,MEAN_MOTION_DDOT
USA 167,2003-008A,2026-07-22T14:09:55.325088,1.00270516,.00032612,11.0297,43.0857,314.7663,33.1489,0,U,27691,999,712,0,0,0
USA 169 (MILSTAR-2 4),2003-012A,2026-07-22T20:35:55.156992,1.00273005,.00994055,12.4024,29.5457,10.6323,1.5691,0,U,27711,999,3331,0,-.201E-5,0
ASIASAT 4,2003-014A,2026-07-22T22:17:15.965664,1.00270751,.00027724,4.7920,75.2919,49.0619,298.1719,0,U,27718,999,4565,0,-.223E-5,0
HELLAS-SAT 2,2003-020A,2026-07-22T19:49:42.472992,1.00272571,.00041618,7.4405,67.4527,86.2729,74.2355,0,U,27811,999,4320,0,-.87E-6,0
THURAYA-2,2003-026A,2026-07-22T16:39:46.755360,1.00271151,.00022749,8.8929,31.8059,27.9418,174.6431,0,U,27825,999,8470,0,.122E-5,0
OPTUS C1,2003-028B,2026-07-22T20:37:02.549856,1.00274523,.00057563,6.9762,68.9725,48.5801,287.9873,0,U,27831,999,5341,0,-.153E-5,0
USA 170,2003-040A,2026-07-22T22:46:06.185280,1.00266610,.000167,10.5738,47.6031,59.8058,199.1235,0,U,27875,999,3335,0,.122E-5,0
GALAXY 13 (HORIZONS-1),2003-044A,2026-07-22T17:27:08.048736,1.00274659,.00020746,1.5078,83.3980,44.1505,284.7210,0,U,27954,999,4692,0,.135E-5,0
YAMAL 202,2003-053A,2026-07-22T20:39:09.845568,1.00271610,.00032044,6.4302,70.5020,50.2829,293.1284,0,U,28089,999,8305,0,-.82E-6,0
UFO 11 (USA 174),2003-057A,2026-07-22T00:45:51.579936,1.00270705,.0002798,8.9587,33.6327,106.2489,246.9067,0,U,28117,999,8279,0,-.107E-5,0
USA 176 (DSP 22),2004-004A,2026-07-22T21:21:00.366912,1.00263887,.00009289,12.1100,25.8012,312.3565,233.0710,0,U,28158,999,3329,0,-.301E-5,0
ABS-4 (MOBISAT-1),2004-007A,2026-07-22T18:27:17.445024,1.00275295,.00045329,6.1280,71.5676,54.8388,151.9468,0,U,28184,999,5269,0,.37E-6,0
INTELSAT 10-02,2004-022A,2026-07-22T19:52:19.720992,1.00272692,.00001864,0.0590,255.7029,262.5018,79.4450,0,U,28358,999,8091,0,-.7E-7,0
ANIK F2,2004-027A,2026-07-22T15:55:21.016416,1.00272593,.0003799,3.3768,78.9736,36.2069,312.9357,0,U,28378,999,4161,0,-.49E-6,0
AMC-15,2004-041A,2026-07-22T14:14:39.871392,1.00272822,.00025297,0.0518,277.8507,203.4067,287.6920,0,U,28446,999,7965,0,-.85E-6,0
NSS-10,2005-003A,2026-07-22T22:03:19.795104,1.00271470,.00029298,6.5367,70.0155,49.2447,114.7722,0,U,28526,999,5351,0,-.253E-5,0
INMARSAT 4-F1,2005-009A,2026-07-22T18:38:38.457600,1.00273314,.00028621,5.2168,42.7944,76.4892,278.9976,0,U,28628,999,7802,0,.33E-6,0
DIRECTV 8,2005-019A,2026-07-22T17:35:59.699904,1.00273389,.0003237,0.0140,77.4981,49.2249,318.7033,0,U,28659,999,7742,0,.5E-7,0
GALAXY 28 (G-28),2005-022A,2026-07-22T21:27:29.744064,1.00271717,.00023116,3.3872,78.4884,41.8532,115.0687,0,U,28702,999,5233,0,-.199E-5,0
THAICOM 4,2005-028A,2026-07-22T22:09:16.731648,1.00273225,.00017603,0.3350,85.4931,8.6173,298.3791,0,U,28786,999,5260,0,-.358E-5,0
ANIK F1R,2005-036A,2026-07-22T15:56:43.384128,1.00272571,.00039934,4.4009,76.1377,24.5922,331.5507,0,U,28868,999,4680,0,-.75E-6,0
SYRACUSE 3A,2005-041B,2026-07-22T21:47:59.652384,1.00271833,.00025737,4.7296,75.3943,40.6116,198.2623,0,U,28885,999,7610,0,.129E-5,0
INMARSAT 4-F2,2005-044A,2026-07-22T22:16:08.573664,1.00271809,.00030002,5.1415,43.6878,62.0566,312.4526,0,U,28899,999,7588,0,-.26E-5,0
METEOSAT-9 (MSG-2),2005-049B,2026-07-22T16:40:16.706784,1.00276413,.00024972,9.4395,53.8119,0.9347,181.4776,0,U,28912,999,735,0,.12E-5,0
EUTELSAT 174A,2005-052A,2026-07-22T20:42:09.559296,1.00273776,.00061308,4.3065,76.0843,44.9570,304.0636,0,U,28924,999,5268,0,.9E-7,0
ECHOSTAR 10,2006-003A,2026-07-22T14:13:10.013664,1.00271630,.00016109,0.0563,280.4831,171.9789,310.9728,0,U,28935,999,7481,0,-.52E-6,0
SPAINSAT,2006-007A,2026-07-22T06:00:56.055456,1.00272680,.0004977,0.6514,85.9731,30.9817,243.0836,0,U,28945,999,7457,0,-.214E-5,0
JCSAT-5A,2006-010A,2026-07-22T22:12:53.885088,1.00270995,.00019699,1.1990,83.8109,30.5252,291.5957,0,U,29045,999,7412,0,-.325E-5,0
ASTRA 1KR,2006-012A,2026-07-22T21:17:57.522048,1.00270098,.00033608,0.5634,83.1816,25.9763,169.9570,0,U,29055,999,4605,0,.122E-5,0
GALAXY 16 (G-16),2006-023A,2026-07-22T15:59:05.657280,1.00272771,.00028192,0.0263,129.7111,352.0085,319.4532,0,U,29236,999,7332,0,-.123E-5,0
EUTELSAT 33F,2006-032A,2026-07-22T21:25:56.039808,1.00269586,.00035337,1.7513,81.8430,28.5349,184.8184,0,U,29270,999,4766,0,.158E-5,0
JCSAT-3A,2006-033A,2026-07-22T22:11:39.003936,1.00270255,.00024312,0.0220,306.6599,179.1513,275.7595,0,U,29272,999,4809,0,-.341E-5,0
